<?xml version="1.0" encoding="UTF-8"?>
<ndm xmlns:xsi="http://www.w3.org/2001/XMLSchema-instance" xsi:noNamespaceSchemaLocation="https://sanaregistry.org/r/ndmxml_unqualified/ndmxml-2.0.0-master-2.0.xsd">
<omm id="CCSDS_OMM_VERS" version="2.0">
<header><CREATION_DATE/><ORIGINATOR/></header><body><segment><metadata><OBJECT_NAME>KUIPER-00251</OBJECT_NAME><OBJECT_ID>2025-301Z</OBJECT_ID><CENTER_NAME>EARTH</CENTER_NAME><REF_FRAME>TEME</REF_FRAME><TIME_SYSTEM>UTC</TIME_SYSTEM><MEAN_ELEMENT_THEORY>SGP4</MEAN_ELEMENT_THEORY></metadata><data><meanElements><EPOCH>2026-01-12T21:22:51.908448</EPOCH><MEAN_MOTION>15.35355092</MEAN_MOTION><ECCENTRICITY>.00092238</ECCENTRICITY><INCLINATION>51.8687</INCLINATION><RA_OF_ASC_NODE>335.0165</RA_OF_ASC_NODE><ARG_OF_PERICENTER>190.5247</ARG_OF_PERICENTER><MEAN_ANOMALY>169.5547</MEAN_ANOMALY></meanElements><tleParameters><EPHEMERIS_TYPE>0</EPHEMERIS_TYPE><CLASSIFICATION_TYPE>U</CLASSIFICATION_TYPE><NORAD_CAT_ID>67156</NORAD_CAT_ID><ELEMENT_SET_NO>999</ELEMENT_SET_NO><REV_AT_EPOCH>534</REV_AT_EPOCH><BSTAR>.58772021E-3</BSTAR><MEAN_MOTION_DOT>.20186E-3</MEAN_MOTION_DOT><MEAN_MOTION_DDOT>0</MEAN_MOTION_DDOT></tleParameters></data></segment></body></omm>
<omm id="CCSDS_OMM_VERS" version="2.0">
<header><CREATION_DATE/><ORIGINATOR/></header><body><segment><metadata><OBJECT_NAME>KUIPER-00252</OBJECT_NAME><OBJECT_ID>2025-301AA</OBJECT_ID><CENTER_NAME>EARTH</CENTER_NAME><REF_FRAME>TEME</REF_FRAME><TIME_SYSTEM>UTC</TIME_SYSTEM><MEAN_ELEMENT_THEORY>SGP4</MEAN_ELEMENT_THEORY></metadata><data><meanElements><EPOCH>2026-01-12T10:38:12.442848</EPOCH><MEAN_MOTION>15.35000446</MEAN_MOTION><ECCENTRICITY>.00097124</ECCENTRICITY><INCLINATION>51.8678</INCLINATION><RA_OF_ASC_NODE>337.2641</RA_OF_ASC_NODE><ARG_OF_PERICENTER>205.0770</ARG_OF_PERICENTER><MEAN_ANOMALY>154.9745</MEAN_ANOMALY></meanElements><tleParameters><EPHEMERIS_TYPE>0</EPHEMERIS_TYPE><CLASSIFICATION_TYPE>U</CLASSIFICATION_TYPE><NORAD_CAT_ID>67157</NORAD_CAT_ID><ELEMENT_SET_NO>999</ELEMENT_SET_NO><REV_AT_EPOCH>508</REV_AT_EPOCH><BSTAR>.81264889E-3</BSTAR><MEAN_MOTION_DOT>.27773E-3</MEAN_MOTION_DOT><MEAN_MOTION_DDOT>0</MEAN_MOTION_DDOT></tleParameters></data></segment></body></omm>
<omm id="CCSDS_OMM_VERS" version="2.0">
<header><CREATION_DATE/><ORIGINATOR/></header><body><segment><metadata><OBJECT_NAME>KUIPER-00261</OBJECT_NAME><OBJECT_ID>2025-301AB</OBJECT_ID><CENTER_NAME>EARTH</CENTER_NAME><REF_FRAME>TEME</REF_FRAME><TIME_SYSTEM>UTC</TIME_SYSTEM><MEAN_ELEMENT_THEORY>SGP4</MEAN_ELEMENT_THEORY></metadata><data><meanElements><EPOCH>2026-01-12T21:03:46.056960</EPOCH><MEAN_MOTION>15.36247382</MEAN_MOTION><ECCENTRICITY>.00065139</ECCENTRICITY><INCLINATION>51.8705</INCLINATION><RA_OF_ASC_NODE>334.9382</RA_OF_ASC_NODE><ARG_OF_PERICENTER>176.6498</ARG_OF_PERICENTER><MEAN_ANOMALY>183.4533</MEAN_ANOMALY></meanElements><tleParameters><EPHEMERIS_TYPE>0</EPHEMERIS_TYPE><CLASSIFICATION_TYPE>U</CLASSIFICATION_TYPE><NORAD_CAT_ID>67158</NORAD_CAT_ID><ELEMENT_SET_NO>999</ELEMENT_SET_NO><REV_AT_EPOCH>515</REV_AT_EPOCH><BSTAR>.66466141E-3</BSTAR><MEAN_MOTION_DOT>.23547E-3</MEAN_MOTION_DOT><MEAN_MOTION_DDOT>0</MEAN_MOTION_DDOT></tleParameters></data></segment></body></omm>
<omm id="CCSDS_OMM_VERS" version="2.0">
<header><CREATION_DATE/><ORIGINATOR/></header><body><segment><metadata><OBJECT_NAME>KUIPER-00265</OBJECT_NAME><OBJECT_ID>2025-301AC</OBJECT_ID><CENTER_NAME>EARTH</CENTER_NAME><REF_FRAME>TEME</REF_FRAME><TIME_SYSTEM>UTC</TIME_SYSTEM><MEAN_ELEMENT_THEORY>SGP4</MEAN_ELEMENT_THEORY></metadata><data><meanElements><EPOCH>2026-01-12T22:00:01.999584</EPOCH><MEAN_MOTION>15.21845409</MEAN_MOTION><ECCENTRICITY>.00014734</ECCENTRICITY><INCLINATION>51.8810</INCLINATION><RA_OF_ASC_NODE>335.1099</RA_OF_ASC_NODE><ARG_OF_PERICENTER>188.1164</ARG_OF_PERICENTER><MEAN_ANOMALY>231.4996</MEAN_ANOMALY></meanElements><tleParameters><EPHEMERIS_TYPE>0</EPHEMERIS_TYPE><CLASSIFICATION_TYPE>U</CLASSIFICATION_TYPE><NORAD_CAT_ID>67159</NORAD_CAT_ID><ELEMENT_SET_NO>999</ELEMENT_SET_NO><REV_AT_EPOCH>518</REV_AT_EPOCH><BSTAR>-.95334037E-1</BSTAR><MEAN_MOTION_DOT>-.1984629E-1</MEAN_MOTION_DOT><MEAN_MOTION_DDOT>0</MEAN_MOTION_DDOT></tleParameters></data></segment></body></omm>
</ndm>
