KUIPER-00251            
1 67156U 25301Z   26012.89087857  .00020186  00000+0  58772-3 0  9997
2 67156  51.8687 335.0165 0009223 190.5247 169.5547 15.35355092  5346
KUIPER-00252            
1 67157U 25301AA  26012.44319957  .00027773  00000+0  81265-3 0  9990
2 67157  51.8678 337.2641 0009712 205.0770 154.9745 15.35000446  5085
KUIPER-00261            
1 67158U 25301AB  26012.87761640  .00023547  00000+0  66466-3 0  9999
2 67158  51.8705 334.9382 0006513 176.6498 183.4533 15.36247382  5152
KUIPER-00265            
1 67159U 25301AC  26012.91668981 -.01984629  00000+0 -95334-1 0  9993
2 67159  51.8810 335.1099 0001473 188.1164 231.4996 15.21845409  5184
